BEIDOU-2 IGSO-1 (C06)   
1 36828U 10036A   25182.87441477 -.00000065  00000+0  00000+0 0  9997
2 36828  54.2785 166.1288 0049364 218.2217 318.3293  1.00273075 54587
BEIDOU-2 G4 (C04)       
1 37210U 10057A   25182.81316054 -.00000109  00000+0  00000+0 0  9991
2 37210   2.7766  70.4510 0004764 174.9364 127.4459  1.00271359 53777
BEIDOU-2 IGSO-2 (C07)   
1 37256U 10068A   25182.57064465 -.00000216  00000+0  00000+0 0  9991
2 37256  48.1793 276.1742 0047419 213.6095 102.8462  1.00285654 53278
BEIDOU-2 IGSO-3 (C08)   
1 37384U 11013A   25181.56910888 -.00000188  00000+0  00000+0 0  9999
2 37384  61.9039  43.4784 0031058 176.4018  11.1864  1.00263406 52133
BEIDOU-2 IGSO-4 (C09)   
1 37763U 11038A   25181.94312816  .00000010  00000+0  00000+0 0  9999
2 37763  54.5807 168.8177 0144347 231.3043 313.8141  1.00275242 51127
BEIDOU-2 IGSO-5 (C10)   
1 37948U 11073A   25182.72888986 -.00000217  00000+0  00000+0 0  9996
2 37948  48.3158 275.8765 0108768 220.2056 141.7635  1.00285339 49628
BEIDOU-2 G5 (C05)       
1 38091U 12008A   25182.86442353  .00000060  00000+0  00000+0 0  9999
2 38091   2.7000  71.2531 0007361 266.7816 312.0155  1.00274725 48966
BEIDOU-2 M3 (C11)       
1 38250U 12018A   25181.48242535 -.00000099  00000+0  00000+0 0  9997
2 38250  56.0561 316.7066 0021261 266.7994  92.9528  1.86233686 89394
BEIDOU-2 M4 (C12)       
1 38251U 12018B   25181.95161222 -.00000100  00000+0  00000+0 0  9996
2 38251  55.9591 315.9333 0012201 266.9235  92.9335  1.86232093 89407
BEIDOU-2 M6 (C14)       
1 38775U 12050B   25181.12510420 -.00000060  00000+0  00000+0 0  9995
2 38775  56.2308  74.5634 0013478 351.3071   8.7131  1.86231114 86751
BEIDOU-2 G6 (C02)       
1 38953U 12059A   25182.89744573 -.00000172  00000+0  00000+0 0  9999
2 38953   3.5307  77.2001 0008932 321.6202 288.4535  1.00269905 46392
BEIDOU-3S IGSO-1S (C31) 
1 40549U 15019A   25182.77355610 -.00000196  00000+0  00000+0 0  9995
2 40549  49.8594 299.6790 0040259 192.5817 161.3696  1.00275191 37556
BEIDOU-3S M2S (C58)     
1 40748U 15037A   25181.08112272 -.00000098  00000+0  00000+0 0  9995
2 40748  55.1806 314.1452 0009265 250.8802 109.0165  1.86229295 67567
BEIDOU-3S M1S (C57)     
1 40749U 15037B   25181.87011277 -.00000101  00000+0  00000+0 0  9991
2 40749  55.1767 314.1098 0002894  24.0331 335.9784  1.86253883 67588
BEIDOU-3S IGSO-2S (C56) 
1 40938U 15053A   25182.92290877 -.00000137  00000+0  00000+0 0  9990
2 40938  49.7619 262.9441 0060030 189.5278 255.3293  1.00264219 35843
BEIDOU-2 IGSO-6 (C13)   
1 41434U 16021A   25182.57405671 -.00000165  00000+0  00000+0 0  9990
2 41434  59.7309  41.5338 0054073 228.5419 311.6553  1.00285155 33967
BEIDOU-2 G7 (C03)       
1 41586U 16037A   25182.85476000 -.00000350  00000+0  00000+0 0  9996
2 41586   1.8002  69.1072 0009721   9.9025 259.3798  1.00273519  3370
BEIDOU-3 M1 (C19)       
1 43001U 17069A   25180.89074491 -.00000058  00000+0  00000+0 0  9991
2 43001  56.3799  74.7161 0009978 320.0649  39.9052  1.86231470 52043
BEIDOU-3 M2 (C20)       
1 43002U 17069B   25181.36571896 -.00000061  00000+0  00000+0 0  9990
2 43002  56.3789  74.7368 0008607 346.6278  13.3927  1.86230904 52040
BEIDOU-3 M7 (C27)       
1 43107U 18003A   25180.57400119 -.00000098  00000+0  00000+0 0  9996
2 43107  54.6395 314.5872 0004372  89.5962 270.4496  1.86232579 50789
BEIDOU-3 M8 (C28)       
1 43108U 18003B   25182.66535220 -.00000104  00000+0  00000+0 0  9999
2 43108  54.6306 314.4985 0003032 252.5664 107.3991  1.86231084 50833
BEIDOU-3 M4 (C22)       
1 43207U 18018A   25181.49589801 -.00000062  00000+0  00000+0 0  9992
2 43207  56.3391  74.7722 0007245  15.1035 344.9612  1.86231388 50191
BEIDOU-3 M3 (C21)       
1 43208U 18018B   25181.02549816 -.00000059  00000+0  00000+0 0  9990
2 43208  56.3383  74.7919 0008209 335.8552  24.1496  1.86231268 50181
BEIDOU-3 M9 (C29)       
1 43245U 18029A   25182.31685691 -.00000103  00000+0  00000+0 0  9998
2 43245  54.5102 312.1965 0000945 178.6006 181.3999  1.86232938 49364
BEIDOU-3 M10 (C30)      
1 43246U 18029B   25182.24980933 -.00000102  00000+0  00000+0 0  9997
2 43246  54.5078 312.2267 0003294  28.7660 331.2521  1.86229277 49341
BEIDOU-2 IGSO-7 (C16)   
1 43539U 18057A   25182.85562029 -.00000066  00000+0  00000+0 0  9991
2 43539  55.1686 166.0898 0089698 236.6552 296.1148  1.00252663 25614
BEIDOU-3 M5 (C23)       
1 43581U 18062A   25182.47488411  .00000070  00000+0  00000+0 0  9998
2 43581  54.1002 194.2271 0005700 282.6513  77.3112  1.86228873 47108
BEIDOU-3 M6 (C24)       
1 43582U 18062B   25181.26497517  .00000054  00000+0  00000+0 0  9994
2 43582  54.0998 194.2573 0004646   1.0620 358.9636  1.86229745 47082
BEIDOU-3 M12 (C26)      
1 43602U 18067A   25182.27485291  .00000068  00000+0  00000+0 0  9995
2 43602  54.1935 192.9391 0007247  23.6970 336.3600  1.86227903 46587
BEIDOU-3 M11 (C25)      
1 43603U 18067B   25182.40894027  .00000070  00000+0  00000+0 0  9995
2 43603  54.1908 192.8990 0004127   5.8322 354.1965  1.86227385 46619
BEIDOU-3 M13 (C32)      
1 43622U 18072A   25182.36740320 -.00000069  00000+0  00000+0 0  9992
2 43622  56.3122  74.2640 0006559 323.6647  36.3335  1.86231490 46127
BEIDOU-3 M14 (C33)      
1 43623U 18072B   25182.23288014 -.00000068  00000+0  00000+0 0  9995
2 43623  56.3138  74.2622 0005527 356.9455   3.0940  1.86231507 46116
BEIDOU-3 M16 (C35)      
1 43647U 18078A   25181.85558075 -.00000101  00000+0  00000+0 0  9999
2 43647  54.4070 312.2801 0006681  32.1972 327.8431  1.86232337 45617
BEIDOU-3 M15 (C34)      
1 43648U 18078B   25181.44785987 -.00000100  00000+0  00000+0 0  9998
2 43648  54.4032 312.2958 0003726  49.7473 310.2844  1.86232430 45636
BEIDOU-3 G1 (C59)       
1 43683U 18085A   25182.88049640 -.00000274  00000+0  00000+0 0  9995
2 43683   2.7046 107.9180 0004315 354.8867 274.3513  1.00269037 24543
BEIDOU-3 M17 (C36)      
1 43706U 18093A   25182.14050932  .00000065  00000+0  00000+0 0  9992
2 43706  54.1835 194.2047 0010332 285.9480  73.9637  1.86228536 45005
BEIDOU-3 M18 (C37)      
1 43707U 18093B   25182.00280329  .00000064  00000+0  00000+0 0  9992
2 43707  54.1844 194.2012 0008200 311.8157  48.1396  1.86230069 44996
BEIDOU-3 IGSO-1 (C38)   
1 44204U 19023A   25182.78691416 -.00000223  00000+0  00000+0 0  9995
2 44204  58.1974  41.2660 0023521 217.1715  62.3069  1.00293499  3697
BEIDOU-2 G8 (C01)       
1 44231U 19027A   25182.88145208 -.00000244  00000+0  00000+0 0  9996
2 44231   1.7283  75.1900 0003788 254.3201  52.4620  1.00270096 22561
BEIDOU-3 IGSO-2 (C39)   
1 44337U 19035A   25182.90180942 -.00000077  00000+0  00000+0 0  9993
2 44337  55.2141 161.9387 0035578 210.8894 351.7142  1.00266651 22189
BEIDOU-3 M24 (C46)      
1 44542U 19061A   25182.61081678  .00000072  00000+0  00000+0 0  9998
2 44542  54.4115 194.5505 0008101 349.7039  10.3068  1.86229320 39266
BEIDOU-3 M23 (C45)      
1 44543U 19061B   25181.31048104  .00000055  00000+0  00000+0 0  9993
2 44543  54.4098 194.5627 0005656 328.6492 152.3048  1.86229498 39242
BEIDOU-3 IGSO-3 (C40)   
1 44709U 19073A   25182.68778742 -.00000211  00000+0  00000+0 0  9994
2 44709  55.4005 284.6840 0044859 188.7262 171.2257  1.00294516 20949
BEIDOU-3 M22 (C44)      
1 44793U 19078A   25181.91593043 -.00000102  00000+0  00000+0 0  9995
2 44793  54.2539 312.1636 0005689  41.5577 318.4853  1.86232276 38118
BEIDOU-3 M21 (C43)      
1 44794U 19078B   25180.97583268 -.00000098  00000+0  00000+0 0  9993
2 44794  54.2285 312.1645 0003671  40.0627 319.9629  1.86227813 38091
BEIDOU-3 M19 (C41)      
1 44864U 19090A   25181.52008159 -.00000063  00000+0  00000+0 0  9990
2 44864  56.2460  74.4422 0017289 292.2217 266.8276  1.86231796 37680
BEIDOU-3 M20 (C42)      
1 44865U 19090B   25181.37231753 -.00000062  00000+0  00000+0 0  9991
2 44865  56.2475  74.4811 0015215 306.5614 243.0630  1.86231678 37664
BEIDOU-3 G2 (C60)       
1 45344U 20017A   25182.89426065 -.00000138  00000+0  00000+0 0  9999
2 45344   2.8980  40.7862 0001805  47.7219 233.6279  1.00271973 19743
BEIDOU-3 G3 (C61)       
1 45807U 20040A   25182.85486765 -.00000350  00000+0  00000+0 0  9994
2 45807   1.5960  64.4199 0004860 345.1266 288.8238  1.00276599 18552
BEIDOU-3 G4 (C62)       
1 56564U 23066A   25182.81307367 -.00000107  00000+0  00000+0 0  9993
2 56564   1.1885 293.0691 0006602 188.5837 251.1738  1.00271327  7888
BEIDOU-3 M28 (C50)      
1 58654U 23207A   25181.59241443 -.00000065  00000+0  00000+0 0  9991
2 58654  55.4345  74.1935 0002687 340.3602  19.6721  1.86229989 10298
BEIDOU-3 M26 (C48)      
1 58655U 23207B   25181.92844791 -.00000067  00000+0  00000+0 0  9996
2 58655  55.4369  74.1681 0002552 305.8231  54.1955  1.86231713 10288
BEIDOU-3 M25 (C47)      
1 61186U 24168B   25182.81572590 -.00000105  00000+0  00000+0 0  9993
2 61186  54.7827 314.3948 0003370 287.4011  65.1250  1.86230302  5251
BEIDOU-3 M27 (C49)      
1 61187U 24168C   25182.71437487 -.00000104  00000+0  00000+0 0  9997
2 61187  54.7783 314.3825 0001168  37.2735  22.1931  1.86230347  2732
